[Satellite]
VERSION=1.1
NAME=IRIDIUM 172
NICKNAME=IRIDIUM 172
TLE1=1 43927U 19002F   20158.14639118  .00000086  00000-0  23671-4 0  9993
TLE2=2 43927  86.3998 193.8083 0002496  98.9476 261.2002 14.34217469 73347
STATUS=0
